[{"OBJECT_NAME":"STARLINK-5452","OBJECT_ID":"2022-175Q","EPOCH":"2025-08-23T14:33:03.685824","MEAN_MOTION":15.08837635,"ECCENTRICITY":0.00013566,"INCLINATION":53.2171,"RA_OF_ASC_NODE":198.4966,"ARG_OF_PERICENTER":90.0992,"MEAN_ANOMALY":270.0155,"EPHEMERIS_TYPE":0,"CLASSIFICATION_TYPE":"U","NORAD_CAT_ID":54772,"ELEMENT_SET_NO":999,"REV_AT_EPOCH":15022,"BSTAR":6.464344e-5,"MEAN_MOTION_DOT":7.41e-6,"MEAN_MOTION_DDOT":0},{"OBJECT_NAME":"STARLINK-5453","OBJECT_ID":"2022-175R","EPOCH":"2025-08-23T15:37:17.027328","MEAN_MOTION":15.0884264,"ECCENTRICITY":0.00012685,"INCLINATION":53.2166,"RA_OF_ASC_NODE":213.0281,"ARG_OF_PERICENTER":87.5217,"MEAN_ANOMALY":272.592,"EPHEMERIS_TYPE":0,"CLASSIFICATION_TYPE":"U","NORAD_CAT_ID":54773,"ELEMENT_SET_NO":999,"REV_AT_EPOCH":15002,"BSTAR":6.487665e-5,"MEAN_MOTION_DOT":7.45e-6,"MEAN_MOTION_DDOT":0},{"OBJECT_NAME":"STARLINK-5454","OBJECT_ID":"2022-175S","EPOCH":"2025-08-23T15:04:46.204320","MEAN_MOTION":15.08839583,"ECCENTRICITY":0.00012606,"INCLINATION":53.2162,"RA_OF_ASC_NODE":197.9309,"ARG_OF_PERICENTER":76.1148,"MEAN_ANOMALY":283.9984,"EPHEMERIS_TYPE":0,"CLASSIFICATION_TYPE":"U","NORAD_CAT_ID":54774,"ELEMENT_SET_NO":999,"REV_AT_EPOCH":15023,"BSTAR":6.0154562e-5,"MEAN_MOTION_DOT":6.7e-6,"MEAN_MOTION_DDOT":0},{"OBJECT_NAME":"STARLINK-5465","OBJECT_ID":"2022-175T","EPOCH":"2025-08-23T15:31:57.745632","MEAN_MOTION":15.08841378,"ECCENTRICITY":0.0001474,"INCLINATION":53.2164,"RA_OF_ASC_NODE":213.0048,"ARG_OF_PERICENTER":89.4082,"MEAN_ANOMALY":270.7079,"EPHEMERIS_TYPE":0,"CLASSIFICATION_TYPE":"U","NORAD_CAT_ID":54775,"ELEMENT_SET_NO":999,"REV_AT_EPOCH":15002,"BSTAR":-2.6135899e-5,"MEAN_MOTION_DOT":-7.04e-6,"MEAN_MOTION_DDOT":0},{"OBJECT_NAME":"STARLINK-5470","OBJECT_ID":"2022-175U","EPOCH":"2025-08-23T08:38:34.687680","MEAN_MOTION":15.08838192,"ECCENTRICITY":0.00012671,"INCLINATION":53.2163,"RA_OF_ASC_NODE":214.0625,"ARG_OF_PERICENTER":85.9119,"MEAN_ANOMALY":274.2018,"EPHEMERIS_TYPE":0,"CLASSIFICATION_TYPE":"U","NORAD_CAT_ID":54776,"ELEMENT_SET_NO":999,"REV_AT_EPOCH":14998,"BSTAR":4.5435515e-5,"MEAN_MOTION_DOT":4.35e-6,"MEAN_MOTION_DDOT":0},{"OBJECT_NAME":"STARLINK-5468","OBJECT_ID":"2022-175V","EPOCH":"2025-08-23T21:48:11.979936","MEAN_MOTION":15.08834952,"ECCENTRICITY":0.00013771,"INCLINATION":53.2172,"RA_OF_ASC_NODE":211.7932,"ARG_OF_PERICENTER":83.5605,"MEAN_ANOMALY":276.5544,"EPHEMERIS_TYPE":0,"CLASSIFICATION_TYPE":"U","NORAD_CAT_ID":54777,"ELEMENT_SET_NO":999,"REV_AT_EPOCH":15006,"BSTAR":2.069119e-5,"MEAN_MOTION_DOT":4.1e-7,"MEAN_MOTION_DDOT":0},{"OBJECT_NAME":"STARLINK-5450","OBJECT_ID":"2022-175W","EPOCH":"2025-08-23T22:19:22.803456","MEAN_MOTION":15.08834274,"ECCENTRICITY":0.00014245,"INCLINATION":53.2167,"RA_OF_ASC_NODE":196.9652,"ARG_OF_PERICENTER":88.9571,"MEAN_ANOMALY":271.1584,"EPHEMERIS_TYPE":0,"CLASSIFICATION_TYPE":"U","NORAD_CAT_ID":54778,"ELEMENT_SET_NO":999,"REV_AT_EPOCH":15027,"BSTAR":1.0834831e-5,"MEAN_MOTION_DOT":-1.16e-6,"MEAN_MOTION_DDOT":0},{"OBJECT_NAME":"STARLINK-5447","OBJECT_ID":"2022-175X","EPOCH":"2025-08-23T20:49:17.656608","MEAN_MOTION":15.08839648,"ECCENTRICITY":0.0001386,"INCLINATION":53.2165,"RA_OF_ASC_NODE":197.2846,"ARG_OF_PERICENTER":85.2316,"MEAN_ANOMALY":274.8834,"EPHEMERIS_TYPE":0,"CLASSIFICATION_TYPE":"U","NORAD_CAT_ID":54779,"ELEMENT_SET_NO":999,"REV_AT_EPOCH":15026,"BSTAR":2.9314678e-5,"MEAN_MOTION_DOT":1.79e-6,"MEAN_MOTION_DDOT":0},{"OBJECT_NAME":"STARLINK-5449","OBJECT_ID":"2022-175Y","EPOCH":"2025-08-23T21:58:08.973696","MEAN_MOTION":15.08835296,"ECCENTRICITY":0.0001306,"INCLINATION":53.2162,"RA_OF_ASC_NODE":196.8687,"ARG_OF_PERICENTER":87.9499,"MEAN_ANOMALY":272.1643,"EPHEMERIS_TYPE":0,"CLASSIFICATION_TYPE":"U","NORAD_CAT_ID":54780,"ELEMENT_SET_NO":999,"REV_AT_EPOCH":15027,"BSTAR":1.446736e-5,"MEAN_MOTION_DOT":-5.8e-7,"MEAN_MOTION_DDOT":0},{"OBJECT_NAME":"STARLINK-5443","OBJECT_ID":"2022-175Z","EPOCH":"2025-08-23T14:17:08.811168","MEAN_MOTION":15.08829379,"ECCENTRICITY":0.00012919,"INCLINATION":53.2169,"RA_OF_ASC_NODE":198.4185,"ARG_OF_PERICENTER":73.4002,"MEAN_ANOMALY":286.7132,"EPHEMERIS_TYPE":0,"CLASSIFICATION_TYPE":"U","NORAD_CAT_ID":54781,"ELEMENT_SET_NO":999,"REV_AT_EPOCH":15022,"BSTAR":-0.00011534458,"MEAN_MOTION_DOT":-2.123e-5,"MEAN_MOTION_DDOT":0},{"OBJECT_NAME":"STARLINK-5439","OBJECT_ID":"2022-175AB","EPOCH":"2025-08-23T14:11:49.250400","MEAN_MOTION":15.08843466,"ECCENTRICITY":0.00015243,"INCLINATION":53.2161,"RA_OF_ASC_NODE":198.405,"ARG_OF_PERICENTER":84.6776,"MEAN_ANOMALY":275.439,"EPHEMERIS_TYPE":0,"CLASSIFICATION_TYPE":"U","NORAD_CAT_ID":54783,"ELEMENT_SET_NO":999,"REV_AT_EPOCH":15022,"BSTAR":-0.00030255739,"MEAN_MOTION_DOT":-5.1e-5,"MEAN_MOTION_DDOT":0},{"OBJECT_NAME":"STARLINK-5442","OBJECT_ID":"2022-175AC","EPOCH":"2025-08-23T21:42:55.534752","MEAN_MOTION":15.08818209,"ECCENTRICITY":8.435e-5,"INCLINATION":53.2163,"RA_OF_ASC_NODE":211.7707,"ARG_OF_PERICENTER":79.02,"MEAN_ANOMALY":281.0887,"EPHEMERIS_TYPE":0,"CLASSIFICATION_TYPE":"U","NORAD_CAT_ID":54784,"ELEMENT_SET_NO":999,"REV_AT_EPOCH":15006,"BSTAR":-9.3715171e-5,"MEAN_MOTION_DOT":-1.778e-5,"MEAN_MOTION_DDOT":0},{"OBJECT_NAME":"STARLINK-5440","OBJECT_ID":"2022-175AD","EPOCH":"2025-08-23T18:31:28.546752","MEAN_MOTION":15.08838275,"ECCENTRICITY":0.00014046,"INCLINATION":53.2172,"RA_OF_ASC_NODE":157.4813,"ARG_OF_PERICENTER":89.1907,"MEAN_ANOMALY":270.9246,"EPHEMERIS_TYPE":0,"CLASSIFICATION_TYPE":"U","NORAD_CAT_ID":54785,"ELEMENT_SET_NO":999,"REV_AT_EPOCH":15081,"BSTAR":4.2349465e-5,"MEAN_MOTION_DOT":3.86e-6,"MEAN_MOTION_DDOT":0},{"OBJECT_NAME":"STARLINK-5441","OBJECT_ID":"2022-175AF","EPOCH":"2025-08-23T05:43:43.636800","MEAN_MOTION":15.08833802,"ECCENTRICITY":0.00013878,"INCLINATION":53.2165,"RA_OF_ASC_NODE":214.7218,"ARG_OF_PERICENTER":84.1011,"MEAN_ANOMALY":276.014,"EPHEMERIS_TYPE":0,"CLASSIFICATION_TYPE":"U","NORAD_CAT_ID":54787,"ELEMENT_SET_NO":999,"REV_AT_EPOCH":14996,"BSTAR":7.73992e-7,"MEAN_MOTION_DOT":-2.76e-6,"MEAN_MOTION_DDOT":0},{"OBJECT_NAME":"STARLINK-5399","OBJECT_ID":"2022-175AG","EPOCH":"2025-08-23T21:52:51.190176","MEAN_MOTION":15.08849619,"ECCENTRICITY":0.00014529,"INCLINATION":53.2175,"RA_OF_ASC_NODE":196.8488,"ARG_OF_PERICENTER":85.9424,"MEAN_ANOMALY":274.1734,"EPHEMERIS_TYPE":0,"CLASSIFICATION_TYPE":"U","NORAD_CAT_ID":54788,"ELEMENT_SET_NO":999,"REV_AT_EPOCH":15027,"BSTAR":9.2481047e-5,"MEAN_MOTION_DOT":1.185e-5,"MEAN_MOTION_DDOT":0},{"OBJECT_NAME":"STARLINK-5446","OBJECT_ID":"2022-175AH","EPOCH":"2025-08-23T13:55:14.223072","MEAN_MOTION":15.08839084,"ECCENTRICITY":0.00013592,"INCLINATION":53.2166,"RA_OF_ASC_NODE":183.2375,"ARG_OF_PERICENTER":87.9552,"MEAN_ANOMALY":272.1595,"EPHEMERIS_TYPE":0,"CLASSIFICATION_TYPE":"U","NORAD_CAT_ID":54789,"ELEMENT_SET_NO":999,"REV_AT_EPOCH":15043,"BSTAR":4.9093483e-5,"MEAN_MOTION_DOT":4.93e-6,"MEAN_MOTION_DDOT":0},{"OBJECT_NAME":"STARLINK-5445","OBJECT_ID":"2022-175AJ","EPOCH":"2025-08-23T04:12:59.991840","MEAN_MOTION":15.08817263,"ECCENTRICITY":0.00014898,"INCLINATION":53.2164,"RA_OF_ASC_NODE":200.0741,"ARG_OF_PERICENTER":90.3637,"MEAN_ANOMALY":269.7526,"EPHEMERIS_TYPE":0,"CLASSIFICATION_TYPE":"U","NORAD_CAT_ID":54790,"ELEMENT_SET_NO":999,"REV_AT_EPOCH":15016,"BSTAR":8.2818374e-5,"MEAN_MOTION_DOT":1.03e-5,"MEAN_MOTION_DDOT":0},{"OBJECT_NAME":"STARLINK-5425","OBJECT_ID":"2022-175AK","EPOCH":"2025-08-23T22:03:27.398304","MEAN_MOTION":15.08840654,"ECCENTRICITY":0.00011496,"INCLINATION":53.2163,"RA_OF_ASC_NODE":196.894,"ARG_OF_PERICENTER":75.5487,"MEAN_ANOMALY":284.5633,"EPHEMERIS_TYPE":0,"CLASSIFICATION_TYPE":"U","NORAD_CAT_ID":54791,"ELEMENT_SET_NO":999,"REV_AT_EPOCH":15027,"BSTAR":-3.3228383e-5,"MEAN_MOTION_DOT":-8.17e-6,"MEAN_MOTION_DDOT":0},{"OBJECT_NAME":"STARLINK-5431","OBJECT_ID":"2022-175AL","EPOCH":"2025-08-23T15:05:25.665792","MEAN_MOTION":15.08836037,"ECCENTRICITY":0.00013428,"INCLINATION":53.2163,"RA_OF_ASC_NODE":212.8924,"ARG_OF_PERICENTER":87.3618,"MEAN_ANOMALY":272.7527,"EPHEMERIS_TYPE":0,"CLASSIFICATION_TYPE":"U","NORAD_CAT_ID":54792,"ELEMENT_SET_NO":999,"REV_AT_EPOCH":15002,"BSTAR":1.0576002e-5,"MEAN_MOTION_DOT":-1.2e-6,"MEAN_MOTION_DDOT":0},{"OBJECT_NAME":"STARLINK-5433","OBJECT_ID":"2022-175AM","EPOCH":"2025-08-23T14:07:51.785184","MEAN_MOTION":15.08836047,"ECCENTRICITY":0.0001493,"INCLINATION":53.2173,"RA_OF_ASC_NODE":188.4435,"ARG_OF_PERICENTER":93.6631,"MEAN_ANOMALY":266.4532,"EPHEMERIS_TYPE":0,"CLASSIFICATION_TYPE":"U","NORAD_CAT_ID":54793,"ELEMENT_SET_NO":999,"REV_AT_EPOCH":15036,"BSTAR":9.316396e-6,"MEAN_MOTION_DOT":-1.4e-6,"MEAN_MOTION_DDOT":0},{"OBJECT_NAME":"STARLINK-5436","OBJECT_ID":"2022-175AP","EPOCH":"2025-08-23T07:29:03.981696","MEAN_MOTION":15.08837365,"ECCENTRICITY":0.00013326,"INCLINATION":53.2163,"RA_OF_ASC_NODE":199.5017,"ARG_OF_PERICENTER":89.6916,"MEAN_ANOMALY":270.4229,"EPHEMERIS_TYPE":0,"CLASSIFICATION_TYPE":"U","NORAD_CAT_ID":54795,"ELEMENT_SET_NO":999,"REV_AT_EPOCH":15018,"BSTAR":-5.493686e-6,"MEAN_MOTION_DOT":-3.75e-6,"MEAN_MOTION_DDOT":0},{"OBJECT_NAME":"STARLINK-5415","OBJECT_ID":"2022-175AQ","EPOCH":"2025-08-23T21:36:57.291840","MEAN_MOTION":15.08823111,"ECCENTRICITY":0.00013858,"INCLINATION":53.2188,"RA_OF_ASC_NODE":196.7813,"ARG_OF_PERICENTER":83.4159,"MEAN_ANOMALY":276.6991,"EPHEMERIS_TYPE":0,"CLASSIFICATION_TYPE":"U","NORAD_CAT_ID":54796,"ELEMENT_SET_NO":999,"REV_AT_EPOCH":15027,"BSTAR":-6.9742202e-5,"MEAN_MOTION_DOT":-1.397e-5,"MEAN_MOTION_DDOT":0},{"OBJECT_NAME":"STARLINK-5435","OBJECT_ID":"2022-175AR","EPOCH":"2025-08-23T15:33:21.374784","MEAN_MOTION":15.08836743,"ECCENTRICITY":0.00013721,"INCLINATION":53.2162,"RA_OF_ASC_NODE":213.0064,"ARG_OF_PERICENTER":80.6947,"MEAN_ANOMALY":279.42,"EPHEMERIS_TYPE":0,"CLASSIFICATION_TYPE":"U","NORAD_CAT_ID":54797,"ELEMENT_SET_NO":999,"REV_AT_EPOCH":15002,"BSTAR":7.0430429e-5,"MEAN_MOTION_DOT":8.33e-6,"MEAN_MOTION_DDOT":0}]
